LANDSAT 9               
1 49260U 21088A   23201.81042111  .00000575  00000+0  13773-3 0  9996
2 49260  98.2284 271.2968 0001221 102.1896 257.9440 14.57115790 96280
